NORAD_CAT_ID,OBJECT_NAME,OBJECT_TYPE,EPOCH,MEAN_MOTION,ECCENTRICITY,INCLINATION,RA_OF_ASC_NODE,ARG_OF_PERICENTER,MEAN_ANOMALY,BSTAR,MEAN_MOTION_DOT,MEAN_MOTION_DDOT,TLE_LINE0,TLE_LINE1,TLE_LINE2,SEMIMAJOR_AXIS,PERIOD,APOGEE,PERIGEE,DECAYED
52469.0,STARLINK-3828,PAYLOAD,2022-06-27 06:00:00,15.55884797,0.0001675999999999,53.2174,10.1756,41.0177,138.8124,-0.016607,-0.01064565,0.0,0 STARLINK-3828,1 52469U 22049R   22178.25001157 -.01064565  00000-0 -16607-1 0  9994,2 52469  53.2174  10.1756 0001676  41.0177 138.8124 15.55884797  8329,6777.719,92.552,400.72,398.448,0.0
52469.0,STARLINK-3828,PAYLOAD,2022-06-27 14:00:01,15.55123748,0.0001622,53.2175,8.5669,43.7982,203.689,-0.017022,-0.01061058,0.0,0 STARLINK-3828,1 52469U 22049R   22178.58334491 -.01061058  00000-0 -17022-1 0  9996,2 52469  53.2175   8.5669 0001622  43.7982 203.6890 15.55123748  1302,6779.93,92.597,402.895,400.695,0.0
52469.0,STARLINK-3828,PAYLOAD,2022-06-27 22:00:00,15.54365054,0.0001748,53.2175,6.9624,32.5268,281.7032,-0.0175379999999999,-0.01062861,0.0,0 STARLINK-3828,1 52469U 22049R   22178.91667824 -.01062861  00000-0 -17538-1 0  9997,2 52469  53.2175   6.9624 0001748  32.5268 281.7032 15.54365054  1309,6782.136,92.642,405.186,402.815,0.0
52469.0,STARLINK-3828,PAYLOAD,2022-06-28 06:00:00,15.53605493,0.0001484,53.2176,5.3559,35.664,344.3987,-0.018038,-0.0106297999999999,0.0,0 STARLINK-3828,1 52469U 22049R   22179.25001157 -.01062980  00000-0 -18038-1 0  9994,2 52469  53.2176   5.3559 0001484  35.6640 344.3987 15.53605493  8489,6784.346,92.688,407.218,405.205,0.0
52469.0,STARLINK-3828,PAYLOAD,2022-06-28 14:00:01,15.52844643,0.0001836,53.2177,3.753,29.9597,55.0222,-0.018492,-0.01060247,0.0,0 STARLINK-3828,1 52469U 22049R   22179.58334491 -.01060247  00000-0 -18492-1 0  9998,2 52469  53.2177   3.7530 0001836  29.9597  55.0222 15.52844643  1302,6786.562,92.733,409.673,407.181,0.0
52469.0,STARLINK-3828,PAYLOAD,2022-06-28 22:00:00,15.5208235,0.0001987,53.2175,2.1537,31.735,117.2529,-0.018914,-0.0105536,0.0,0 STARLINK-3828,1 52469U 22049R   22179.91667824 -.01055360  00000-0 -18914-1 0  9993,2 52469  53.2175   2.1537 0001987  31.7350 117.2529 15.52082350  1305,6788.784000000002,92.779,411.99800000000016,409.3,0.0
52469.0,STARLINK-3828,PAYLOAD,2022-06-29 06:00:00,15.51327847,0.0001633,53.2175,0.5528,44.2829,167.8514,-0.019623,-0.01064467,0.0,0 STARLINK-3828,1 52469U 22049R   22180.25001157 -.01064467  00000-0 -19623-1 0  9999,2 52469  53.2175   0.5528 0001633  44.2829 167.8514 15.51327847  8635,6790.985,92.824,413.959,411.741,0.0
52469.0,STARLINK-3828,PAYLOAD,2022-06-29 14:00:01,15.50438478,0.0001873,53.2177,358.9563,40.2237,234.1108,-0.011776,-0.0062997,0.0,0 STARLINK-3828,1 52469U 22049R   22180.58334491 -.00629970  00000-0 -11776-1 0  9991,2 52469  53.2177 358.9563 0001873  40.2237 234.1108 15.50438478  8685,6793.581999999999,92.877,416.719,414.174,0.0
52469.0,STARLINK-3828,PAYLOAD,2022-06-29 22:00:00,15.49889697,0.0001828,53.2174,357.3636,40.1488,295.4991,-0.00013628,-8.18e-05,0.0,0 STARLINK-3828,1 52469U 22049R   22180.91667824 -.00008180  00000-0 -13628-3 0  9991,2 52469  53.2174 357.3636 0001828  40.1488 295.4991 15.49889697  1306,6795.185,92.91,418.293,415.8080000000001,0.0
52469.0,STARLINK-3828,PAYLOAD,2022-06-30 14:00:01,15.49926913,0.0001709,53.2151,354.1844,41.5321,56.0126,-0.00027407,-0.00015999,0.0,0 STARLINK-3828,1 52469U 22049R   22181.58334491 -.00015999  00000-0 -27407-3 0  9992,2 52469  53.2151 354.1844 0001709  41.5321  56.0126 15.49926913  1300,6795.0769999999975,92.908,418.103,415.78,0.0
52469.0,STARLINK-3828,PAYLOAD,2022-06-30 16:00:00,15.49924362,0.0001767,53.2151,353.7867,39.4382,163.3469,-0.00027505,-0.00016053,0.0,0 STARLINK-3828,1 52469U 22049R   22181.66667824 -.00016053  00000-0 -27505-3 0  9991,2 52469  53.2151 353.7867 0001767  39.4382 163.3469 15.49924362  8852,6795.084,92.908,418.15,415.74800000000016,0.0
52469.0,STARLINK-3828,PAYLOAD,2022-06-30 22:00:00,15.49907329,0.0001855,53.2152,352.5929,34.4881,124.002,-0.00037337,-0.00021602,0.0,0 STARLINK-3828,1 52469U 22049R   22181.91667824 -.00021602  00000-0 -37337-3 0  9999,2 52469  53.2152 352.5929 0001855  34.4881 124.0020 15.49907329  1300,6795.134,92.909,418.259,415.73800000000006,0.0
52469.0,STARLINK-3828,PAYLOAD,2022-07-01 06:00:00,15.49853865,0.0001619,53.2156,350.9978,33.1095,186.3239,4.297e-05,1.985e-05,0.0,0 STARLINK-3828,1 52469U 22049R   22182.25001157  .00001985  00000-0  42970-4 0  9998,2 52469  53.2156 350.9978 0001619  33.1095 186.3239 15.49853865  8946,6795.29,92.912,418.255,416.055,0.0
52469.0,STARLINK-3828,PAYLOAD,2022-07-01 14:00:01,15.49878268,0.0001658,53.2162,349.4035,36.3865,243.9264,-0.00031041,-0.00018025,0.0,0 STARLINK-3828,1 52469U 22049R   22182.58334491 -.00018025  00000-0 -31041-3 0  9995,2 52469  53.2162 349.4035 0001658  36.3865 243.9264 15.49878268  1308,6795.219,92.911,418.211,415.957,0.0
52469.0,STARLINK-3828,PAYLOAD,2022-07-01 22:00:00,15.49974527,0.0001655,53.2165,347.8083,30.0169,311.1799,-0.0077786999999999,-0.0042041,0.0,0 STARLINK-3828,1 52469U 22049R   22182.91667824 -.00420410  00000-0 -77787-2 0  9992,2 52469  53.2165 347.8083 0001655  30.0169 311.1799 15.49974527  1307,6794.938,92.905,417.927,415.67800000000005,0.0
52469.0,STARLINK-3828,PAYLOAD,2022-07-02 14:00:01,15.49139455,0.000194,53.2177,344.6147,30.0136,72.4437,-0.021097,-0.01059005,0.0,0 STARLINK-3828,1 52469U 22049R   22183.58334491 -.01059005  00000-0 -21097-1 0  9998,2 52469  53.2177 344.6147 0001940  30.0136  72.4437 15.49139455  1306,6797.379,92.955,420.56300000000016,417.926,0.0
52469.0,STARLINK-3828,PAYLOAD,2022-07-02 22:00:00,15.48375739,0.0001747,53.2173,343.0237,39.4264,122.5859,-0.0215,-0.01051211,0.0,0 STARLINK-3828,1 52469U 22049R   22183.91667824 -.01051211  00000-0 -21500-1 0  9994,2 52469  53.2173 343.0237 0001747  39.4264 122.5859 15.48375739  1306,6799.614000000001,93.001,422.667,420.291,0.0
52469.0,STARLINK-3828,PAYLOAD,2022-07-03 14:00:01,15.46860337,0.0001805,53.2176,339.8438,33.7478,244.6342,-0.022809,-0.01056969,0.0,0 STARLINK-3828,1 52469U 22049R   22184.58334491 -.01056969  00000-0 -22809-1 0  9997,2 52469  53.2176 339.8438 0001805  33.7478 244.6342 15.46860337  9306,6804.054,93.092,427.147,424.691,0.0
52469.0,STARLINK-3828,PAYLOAD,2022-07-03 22:00:00,15.46100585,0.0001509,53.2172,338.2581,37.518,297.6794,-0.023386,-0.01055517,0.0,0 STARLINK-3828,1 52469U 22049R   22184.91667824 -.01055517  00000-0 -23386-1 0  9992,2 52469  53.2172 338.2581 0001509  37.5180 297.6794 15.46100585  1300,6806.283,93.138,429.175,427.121,0.0
52469.0,STARLINK-3828,PAYLOAD,2022-07-04 06:00:00,15.45339653,0.0001359,53.2173,336.6712,43.8716,347.2317,-0.023988,-0.01054622,0.0,0 STARLINK-3828,1 52469U 22049R   22185.25001157 -.01054622  00000-0 -23988-1 0  9995,2 52469  53.2173 336.6712 0001359  43.8716 347.2317 15.45339653  9419,6808.517,93.183,431.3080000000001,429.457,0.0
52469.0,STARLINK-3828,PAYLOAD,2022-07-04 14:00:01,15.445820499999998,0.0001548,53.2174,335.0892,43.5223,42.5703,-0.024686,-0.01057191,0.0,0 STARLINK-3828,1 52469U 22049R   22185.58334491 -.01057191  00000-0 -24686-1 0  9991,2 52469  53.2174 335.0892 0001548  43.5223  42.5703 15.44582050  1306,6810.743,93.229,433.663,431.554,0.0
52469.0,STARLINK-3828,PAYLOAD,2022-07-04 22:00:00,15.43821113,0.0001467,53.2172,333.5089,52.3868,87.7839,-0.025252,-0.01053947,0.0,0 STARLINK-3828,1 52469U 22049R   22185.91667824 -.01053947  00000-0 -25252-1 0  9992,2 52469  53.2172 333.5089 0001467  52.3868  87.7839 15.43821113  1304,6812.981,93.275,435.846,433.847,0.0
52469.0,STARLINK-3828,PAYLOAD,2022-07-05 08:00:01,15.42871225,0.0001406999999999,53.2173,331.5327,49.558,246.9287,-0.026084,-0.01068774,0.0,0 STARLINK-3828,1 52469U 22049R   22186.33334491 -.01068774  00000-0 -26084-1 0  9998,2 52469  53.2173 331.5327 0001407  49.5580 246.9287 15.42871225  9572,6815.776999999999,93.332,438.601,436.6830000000001,0.0
52469.0,STARLINK-3828,PAYLOAD,2022-07-05 14:00:01,15.423014300000002,0.0001631,53.2174,330.351,45.797,199.7929,-0.026555,-0.01067492,0.0,0 STARLINK-3828,1 52469U 22049R   22186.58334491 -.01067492  00000-0 -26555-1 0  9994,2 52469  53.2174 330.3510 0001631  45.7970 199.7929 15.42301430  1301,6817.456,93.367,440.4330000000001,438.209,0.0
52469.0,STARLINK-3828,PAYLOAD,2022-07-05 22:00:00,15.41544339,0.0001330999999999,53.2172,328.7758,53.9304,242.9982,-0.02733,-0.01070672,0.0,0 STARLINK-3828,1 52469U 22049R   22186.91667824 -.01070672  00000-0 -27330-1 0  9996,2 52469  53.2172 328.7758 0001331  53.9304 242.9982 15.41544339  1309,6819.688,93.413,442.461,440.645,0.0
52469.0,STARLINK-3828,PAYLOAD,2022-07-06 06:00:00,15.40781804,0.0001323,53.2173,327.1999,47.0028,300.3561,-0.027928,-0.01066863,0.0,0 STARLINK-3828,1 52469U 22049R   22187.25001157 -.01066863  00000-0 -27928-1 0  9995,2 52469  53.2173 327.1999 0001323  47.0028 300.3561 15.40781804  9723,6821.938,93.459,444.705,442.9,0.0
52469.0,STARLINK-3828,PAYLOAD,2022-07-06 14:00:01,15.40025068,0.0001706999999999,53.2175,325.629,33.9637,2.9081,-0.028759,-0.01071012,0.0,0 STARLINK-3828,1 52469U 22049R   22187.58334491 -.01071012  00000-0 -28759-1 0  9996,2 52469  53.2175 325.6290 0001707  33.9637   2.9081 15.40025068  1309,6824.172,93.505,447.202,444.872,0.0
52469.0,STARLINK-3828,PAYLOAD,2022-07-06 22:00:00,15.39264481,0.0001817,53.2172,324.059,32.6309,52.8432,-0.029411,-0.01068308,0.0,0 STARLINK-3828,1 52469U 22049R   22187.91667824 -.01068308  00000-0 -29411-1 0  9992,2 52469  53.2172 324.0590 0001817  32.6309  52.8432 15.39264481  1302,6826.42,93.551,449.525,447.045,0.0
52469.0,STARLINK-3828,PAYLOAD,2022-07-07 06:00:02,15.3850486,0.0001733,53.2173,322.4887,39.5998,93.6294,-0.030192,-0.01069446,0.0,0 STARLINK-3828,1 52469U 22049R   22188.25002315 -.01069446  00000-0 -30192-1 0  9990,2 52469  53.2173 322.4887 0001733  39.5998  93.6294 15.38504860  9877,6828.667,93.597,451.715,449.348,0.0
